KUIPER-00140            
1 65965U 25228U   26194.28326034  .00003004  00000+0  42269-3 0  9992
2 65965  51.8984 150.2883 0000386 206.6572 153.4370 14.79946998 42038
KUIPER-00141            
1 65966U 25228V   26194.22115850  .00001668  00000+0  24774-3 0  9994
2 65966  51.9022 145.6179 0000758  77.1219 282.9828 14.79937492 42092
KUIPER-00146            
1 65967U 25228W   26194.25222600  .00001416  00000+0  21475-3 0  9996
2 65967  51.9026 147.9912 0000838  72.1518 287.9536 14.79938488 42067
KUIPER-00149            
1 65968U 25228X   26194.29138711  .00001652  00000+0  24568-3 0  9998
2 65968  51.9009 142.7037 0000884  82.0529 278.0534 14.79921073 42143
KUIPER-00154            
1 65969U 25228Y   26194.26030318  .00001701  00000+0  25212-3 0  9992
2 65969  51.9003 140.3313 0000898  74.7888 285.3173 14.79930709 42179
KUIPER-00157            
1 65970U 25228Z   26194.25075774  .00001453  00000+0  21342-3 0  9992
2 65970  51.9021 142.9419 0001083  46.4973 313.6080 14.81195384 42137
KUIPER-00144            
1 67133U 25301A   26194.44413186  .00001133  00000+0  17756-3 0  9990
2 67133  51.9004 219.5326 0000300  72.3485 287.7510 14.79938205 32497
KUIPER-00164            
1 67134U 25301B   26194.41754002  .00000985  00000+0  17062-3 0  9997
2 67134  51.9029 232.0218 0001068 352.5065   7.5880 14.76499405 32493
KUIPER-00175            
1 67135U 25301C   26194.50001156  .00017356  00000+0  22936-2 0  9998
2 67135  51.8972 214.2480 0000630  81.6135   7.5440 14.80045602  5094
KUIPER-00179            
1 67136U 25301D   26193.48794501  .00001167  00000+0  18212-3 0  9994
2 67136  51.8990 233.7334 0000375  87.2910 272.8095 14.79930316 32397
KUIPER-00181            
1 67137U 25301E   26194.35231507 -.00003690  00000+0 -45508-3 0  9997
2 67137  51.9023 242.4445 0001584  56.1167 303.9946 14.79942042 32321
KUIPER-00183            
1 67138U 25301F   26193.50926435  .00001871  00000+0  20310-3 0  9996
2 67138  51.8931 218.6868 0009749 112.6088 247.5912 14.92760238 32599
KUIPER-00184            
1 67139U 25301G   26194.47249069  .00001032  00000+0  16440-3 0  9993
2 67139  51.8984 224.3817 0000299  89.2449 270.8548 14.79933398 32708
KUIPER-00186            
1 67140U 25301H   26194.38610257  .00001209  00000+0  18749-3 0  9996
2 67140  51.9029 242.3091 0000394  91.4544 268.6464 14.79938623 32171
KUIPER-00187            
1 67141U 25301J   26194.45096358  .00001325  00000+0  20273-3 0  9999
2 67141  51.9030 244.5454 0000428 100.3265 259.7746 14.79930521 32149
KUIPER-00188            
1 67142U 25301K   26194.45222552 -.00000200  00000+0  27982-5 0  9995
2 67142  51.9024 212.1276 0000581  63.4765 296.6257 14.79930527 32592
