{"fetched_at":"2026-07-13T18:16:29.920Z","source":"https://celestrak.org/NORAD/elements/gp.php?GROUP=kuiper&FORMAT=JSON","constellation":"kuiper","records":[{"OBJECT_NAME":"KUIPER-00140","OBJECT_ID":"2025-228U","EPOCH":"2026-07-13T06:47:53.693376","CLASSIFICATION_TYPE":"U","MEAN_MOTION":14.79946998,"ECCENTRICITY":0.0000386,"INCLINATION":51.8984,"RA_OF_ASC_NODE":150.2883,"ARG_OF_PERICENTER":206.6572,"MEAN_ANOMALY":153.437,"EPHEMERIS_TYPE":0,"NORAD_CAT_ID":65965,"ELEMENT_SET_NO":999,"REV_AT_EPOCH":4203,"BSTAR":0.00042269,"MEAN_MOTION_DOT":0.00003004,"MEAN_MOTION_DDOT":0},{"OBJECT_NAME":"KUIPER-00141","OBJECT_ID":"2025-228V","EPOCH":"2026-07-13T05:18:28.094400","CLASSIFICATION_TYPE":"U","MEAN_MOTION":14.79937492,"ECCENTRICITY":0.0000758,"INCLINATION":51.9022,"RA_OF_ASC_NODE":145.6179,"ARG_OF_PERICENTER":77.1219,"MEAN_ANOMALY":282.9828,"EPHEMERIS_TYPE":0,"NORAD_CAT_ID":65966,"ELEMENT_SET_NO":999,"REV_AT_EPOCH":4209,"BSTAR":0.00024774,"MEAN_MOTION_DOT":0.00001668,"MEAN_MOTION_DDOT":0},{"OBJECT_NAME":"KUIPER-00146","OBJECT_ID":"2025-228W","EPOCH":"2026-07-13T06:03:12.326400","CLASSIFICATION_TYPE":"U","MEAN_MOTION":14.79938488,"ECCENTRICITY":0.0000838,"INCLINATION":51.9026,"RA_OF_ASC_NODE":147.9912,"ARG_OF_PERICENTER":72.1518,"MEAN_ANOMALY":287.9536,"EPHEMERIS_TYPE":0,"NORAD_CAT_ID":65967,"ELEMENT_SET_NO":999,"REV_AT_EPOCH":4206,"BSTAR":0.00021475,"MEAN_MOTION_DOT":0.00001416,"MEAN_MOTION_DDOT":0},{"OBJECT_NAME":"KUIPER-00149","OBJECT_ID":"2025-228X","EPOCH":"2026-07-13T06:59:35.846304","CLASSIFICATION_TYPE":"U","MEAN_MOTION":14.79921073,"ECCENTRICITY":0.0000884,"INCLINATION":51.9009,"RA_OF_ASC_NODE":142.7037,"ARG_OF_PERICENTER":82.0529,"MEAN_ANOMALY":278.0534,"EPHEMERIS_TYPE":0,"NORAD_CAT_ID":65968,"ELEMENT_SET_NO":999,"REV_AT_EPOCH":4214,"BSTAR":0.00024568,"MEAN_MOTION_DOT":0.00001652,"MEAN_MOTION_DDOT":0},{"OBJECT_NAME":"KUIPER-00154","OBJECT_ID":"2025-228Y","EPOCH":"2026-07-13T06:14:50.194752","CLASSIFICATION_TYPE":"U","MEAN_MOTION":14.79930709,"ECCENTRICITY":0.0000898,"INCLINATION":51.9003,"RA_OF_ASC_NODE":140.3313,"ARG_OF_PERICENTER":74.7888,"MEAN_ANOMALY":285.3173,"EPHEMERIS_TYPE":0,"NORAD_CAT_ID":65969,"ELEMENT_SET_NO":999,"REV_AT_EPOCH":4217,"BSTAR":0.00025212,"MEAN_MOTION_DOT":0.00001701,"MEAN_MOTION_DDOT":0},{"OBJECT_NAME":"KUIPER-00157","OBJECT_ID":"2025-228Z","EPOCH":"2026-07-13T06:01:05.468736","CLASSIFICATION_TYPE":"U","MEAN_MOTION":14.81195384,"ECCENTRICITY":0.0001083,"INCLINATION":51.9021,"RA_OF_ASC_NODE":142.9419,"ARG_OF_PERICENTER":46.4973,"MEAN_ANOMALY":313.608,"EPHEMERIS_TYPE":0,"NORAD_CAT_ID":65970,"ELEMENT_SET_NO":999,"REV_AT_EPOCH":4213,"BSTAR":0.00021342,"MEAN_MOTION_DOT":0.00001453,"MEAN_MOTION_DDOT":0},{"OBJECT_NAME":"KUIPER-00144","OBJECT_ID":"2025-301A","EPOCH":"2026-07-13T10:39:32.992704","CLASSIFICATION_TYPE":"U","MEAN_MOTION":14.79938205,"ECCENTRICITY":0.00003,"INCLINATION":51.9004,"RA_OF_ASC_NODE":219.5326,"ARG_OF_PERICENTER":72.3485,"MEAN_ANOMALY":287.751,"EPHEMERIS_TYPE":0,"NORAD_CAT_ID":67133,"ELEMENT_SET_NO":999,"REV_AT_EPOCH":3249,"BSTAR":0.00017756,"MEAN_MOTION_DOT":0.00001133,"MEAN_MOTION_DDOT":0},{"OBJECT_NAME":"KUIPER-00164","OBJECT_ID":"2025-301B","EPOCH":"2026-07-13T10:01:15.457728","CLASSIFICATION_TYPE":"U","MEAN_MOTION":14.76499405,"ECCENTRICITY":0.0001068,"INCLINATION":51.9029,"RA_OF_ASC_NODE":232.0218,"ARG_OF_PERICENTER":352.5065,"MEAN_ANOMALY":7.588,"EPHEMERIS_TYPE":0,"NORAD_CAT_ID":67134,"ELEMENT_SET_NO":999,"REV_AT_EPOCH":3249,"BSTAR":0.00017062,"MEAN_MOTION_DOT":0.00000985,"MEAN_MOTION_DDOT":0},{"OBJECT_NAME":"KUIPER-00175","OBJECT_ID":"2025-301C","EPOCH":"2026-07-13T12:00:00.998784","CLASSIFICATION_TYPE":"U","MEAN_MOTION":14.80045602,"ECCENTRICITY":0.000063,"INCLINATION":51.8972,"RA_OF_ASC_NODE":214.248,"ARG_OF_PERICENTER":81.6135,"MEAN_ANOMALY":7.544,"EPHEMERIS_TYPE":0,"NORAD_CAT_ID":67135,"ELEMENT_SET_NO":999,"REV_AT_EPOCH":509,"BSTAR":0.0022936,"MEAN_MOTION_DOT":0.00017356,"MEAN_MOTION_DDOT":0},{"OBJECT_NAME":"KUIPER-00179","OBJECT_ID":"2025-301D","EPOCH":"2026-07-12T11:42:38.448864","CLASSIFICATION_TYPE":"U","MEAN_MOTION":14.79930316,"ECCENTRICITY":0.00003752,"INCLINATION":51.899,"RA_OF_ASC_NODE":233.7334,"ARG_OF_PERICENTER":87.291,"MEAN_ANOMALY":272.8095,"EPHEMERIS_TYPE":0,"NORAD_CAT_ID":67136,"ELEMENT_SET_NO":999,"REV_AT_EPOCH":3239,"BSTAR":0.00018211519,"MEAN_MOTION_DOT":0.00001167,"MEAN_MOTION_DDOT":0},{"OBJECT_NAME":"KUIPER-00181","OBJECT_ID":"2025-301E","EPOCH":"2026-07-13T08:27:20.022048","CLASSIFICATION_TYPE":"U","MEAN_MOTION":14.79942042,"ECCENTRICITY":0.0001584,"INCLINATION":51.9023,"RA_OF_ASC_NODE":242.4445,"ARG_OF_PERICENTER":56.1167,"MEAN_ANOMALY":303.9946,"EPHEMERIS_TYPE":0,"NORAD_CAT_ID":67137,"ELEMENT_SET_NO":999,"REV_AT_EPOCH":3232,"BSTAR":-0.00045508,"MEAN_MOTION_DOT":-0.0000369,"MEAN_MOTION_DDOT":0},{"OBJECT_NAME":"KUIPER-00183","OBJECT_ID":"2025-301F","EPOCH":"2026-07-12T12:13:20.439840","CLASSIFICATION_TYPE":"U","MEAN_MOTION":14.92760238,"ECCENTRICITY":0.00097491,"INCLINATION":51.8931,"RA_OF_ASC_NODE":218.6868,"ARG_OF_PERICENTER":112.6088,"MEAN_ANOMALY":247.5912,"EPHEMERIS_TYPE":0,"NORAD_CAT_ID":67138,"ELEMENT_SET_NO":999,"REV_AT_EPOCH":3259,"BSTAR":0.00020310385,"MEAN_MOTION_DOT":0.00001871,"MEAN_MOTION_DDOT":0},{"OBJECT_NAME":"KUIPER-00184","OBJECT_ID":"2025-301G","EPOCH":"2026-07-13T11:20:23.195616","CLASSIFICATION_TYPE":"U","MEAN_MOTION":14.79933398,"ECCENTRICITY":0.0000299,"INCLINATION":51.8984,"RA_OF_ASC_NODE":224.3817,"ARG_OF_PERICENTER":89.2449,"MEAN_ANOMALY":270.8548,"EPHEMERIS_TYPE":0,"NORAD_CAT_ID":67139,"ELEMENT_SET_NO":999,"REV_AT_EPOCH":3270,"BSTAR":0.0001644,"MEAN_MOTION_DOT":0.00001032,"MEAN_MOTION_DDOT":0},{"OBJECT_NAME":"KUIPER-00186","OBJECT_ID":"2025-301H","EPOCH":"2026-07-13T09:15:59.262048","CLASSIFICATION_TYPE":"U","MEAN_MOTION":14.79938623,"ECCENTRICITY":0.0000394,"INCLINATION":51.9029,"RA_OF_ASC_NODE":242.3091,"ARG_OF_PERICENTER":91.4544,"MEAN_ANOMALY":268.6464,"EPHEMERIS_TYPE":0,"NORAD_CAT_ID":67140,"ELEMENT_SET_NO":999,"REV_AT_EPOCH":3217,"BSTAR":0.00018749,"MEAN_MOTION_DOT":0.00001209,"MEAN_MOTION_DDOT":0},{"OBJECT_NAME":"KUIPER-00187","OBJECT_ID":"2025-301J","EPOCH":"2026-07-13T10:49:23.253312","CLASSIFICATION_TYPE":"U","MEAN_MOTION":14.79930521,"ECCENTRICITY":0.0000428,"INCLINATION":51.903,"RA_OF_ASC_NODE":244.5454,"ARG_OF_PERICENTER":100.3265,"MEAN_ANOMALY":259.7746,"EPHEMERIS_TYPE":0,"NORAD_CAT_ID":67141,"ELEMENT_SET_NO":999,"REV_AT_EPOCH":3214,"BSTAR":0.00020273,"MEAN_MOTION_DOT":0.00001325,"MEAN_MOTION_DDOT":0},{"OBJECT_NAME":"KUIPER-00188","OBJECT_ID":"2025-301K","EPOCH":"2026-07-13T10:51:12.284928","CLASSIFICATION_TYPE":"U","MEAN_MOTION":14.79930527,"ECCENTRICITY":0.0000581,"INCLINATION":51.9024,"RA_OF_ASC_NODE":212.1276,"ARG_OF_PERICENTER":63.4765,"MEAN_ANOMALY":296.6257,"EPHEMERIS_TYPE":0,"NORAD_CAT_ID":67142,"ELEMENT_SET_NO":999,"REV_AT_EPOCH":3259,"BSTAR":0.0000027982,"MEAN_MOTION_DOT":-0.000002,"MEAN_MOTION_DDOT":0}]}
